FLOCK 2P-2              
1 41609U 16040L   17160.82371634  .00001147  00000-0  53019-4 0  9995
2 41609  97.4598 223.5491 0012810  99.3945 260.8739 15.22132474 53500
FLOCK 2P-9              
1 41610U 16040M   17160.90045458  .00001054  00000-0  48942-4 0  9994
2 41610  97.4595 223.5873 0012990  99.4957 260.7748 15.22167561 53397
FLOCK 2P-4              
1 41611U 16040N   17160.86211363  .00002249  00000-0  10103-3 0  9994
2 41611  97.4620 223.7474 0013194 107.5310 252.7369 15.22132766 53554
FLOCK 2P-10             
1 41612U 16040P   17160.90600267  .00003036  00000-0  13527-3 0  9993
2 41612  97.4625 223.8619 0012932 107.4958 252.7693 15.22138237 53568
FLOCK 2P-8              
1 41613U 16040Q   17160.92226868  .00001209  00000-0  55747-4 0  9998
2 41613  97.4623 223.8242 0013005 106.8297 253.4366 15.22138028 53563
FLOCK 2P-12             
1 41614U 16040R   17160.88399162  .00001478  00000-0  67428-4 0  9999
2 41614  97.4630 223.9193 0012725 106.8873 253.3759 15.22150587 53565
FLOCK 2P-7              
1 41615U 16040S   17160.91685241  .00002538  00000-0  11361-3 0  9992
2 41615  97.4618 223.8197 0012974 108.0095 252.2556 15.22134577 53565
FLOCK 2P-5              
1 41616U 16040T   17160.89501411  .00002093  00000-0  94230-4 0  9999
2 41616  97.4630 223.9040 0012741 106.3207 253.9431 15.22134370 53545
FLOCK 2P-1              
1 41617U 16040U   17160.88343639  .00002776  00000-0  12396-3 0  9995
2 41617  97.4633 223.9184 0012580 107.1831 253.0783 15.22137048 53569
FLOCK 2P-3              
1 41618U 16040V   17160.84570061  .00001916  00000-0  86501-4 0  9998
2 41618  97.4630 223.8115 0012616 107.2261 253.0357 15.22151315 53557
BEESAT-4                
1 41619U 16040W   17160.75599719  .00001374  00000-0  65519-4 0  9994
2 41619  97.4629 223.2151 0013904  94.4205 265.8620 15.20719558 41464
3CAT-2                  
1 41732U 16051B   17160.82672924  .00001167  00000-0  49758-4 0  9997
2 41732  97.3775  77.9254 0012636 305.3189  96.6645 15.24860547 45410
FLOCK 2E'-13            
1 41761U 98067KH  17160.85090608  .00006923  00000-0  88148-4 0  9993
2 41761  51.6392  67.6001 0005703 229.2268 130.8230 15.60606214 41769
FLOCK 2E'-14            
1 41762U 98067KJ  17160.83711098  .00007253  00000-0  91466-4 0  9999
2 41762  51.6404  67.5290 0005575 229.3525 130.6985 15.60775795 41763
FLOCK 2E'-16            
1 41763U 98067KK  17160.81060927  .00008121  00000-0  10005-3 0  9990
2 41763  51.6404  67.3482 0004733 240.9655 119.0865 15.61200489 41721
FLOCK 2E'-15            
1 41764U 98067KL  17160.79748860  .00006605  00000-0  84702-4 0  9998
2 41764  51.6401  68.0102 0005193 237.1376 122.9117 15.60510045 41718
FLOCK 2E'-18            
1 41769U 98067KM  17160.84742341  .00006635  00000-0  84919-4 0  9990
2 41769  51.6402  67.5874 0004156 264.0331  96.0189 15.60552672 41725
FLOCK 2E'-17            
1 41776U 98067KN  17160.90406747  .00007123  00000-0  90555-4 0  9998
2 41776  51.6412  67.2321 0004513 264.7670  95.2809 15.60596073 41721
FLOCK 2E'-19            
1 41777U 98067KP  17160.90313908  .00010982  00000-0  12441-3 0  9999
2 41777  51.6391  64.9422 0003493 264.2602  95.7994 15.62969389 41715
FLOCK 2E'-20            
1 41782U 98067KQ  17160.89886903  .00009345  00000-0  10972-3 0  9991
2 41782  51.6403  65.6857 0003390 259.0066 101.0547 15.62253224 41570
CANX-7                  
1 41788U 16059F   17160.75178609  .00006136  00000-0  11610-2 0  9994
2 41788  98.1743 222.5769 0036565 182.9574 177.1410 14.64282615 37501
ALSAT 1N                
1 41789U 16059G   17160.76825604  .00000101  00000-0  28442-4 0  9999
2 41789  98.1675 222.7056 0028451 175.4543 184.6910 14.64047840 37524
RAVAN                   
1 41849U 16067B   17160.67099906  .00000535  00000-0  51824-4 0  9994
2 41849  97.9487 238.6191 0007763 331.7558  28.3241 14.96960142 31384
CELTEE 1                
1 41850U 16067C   17160.77461281  .00000422  00000-0  42454-4 0  9990
2 41850  97.9494 238.6393 0007933 333.5691  26.5124 14.96550815 31398
OPTICUBE 04             
1 41851U 16067D   17160.91360898  .00000012  00000-0  64170-5 0  9994
2 41851  97.9491 238.7687 0008176 333.7863  26.2942 14.96486301 31412
AEROCUBE 8D             
1 41852U 16067E   17160.75936561  .00000709  00000-0  68263-4 0  9992
2 41852  97.9500 238.5294 0008724 331.7902  28.2845 14.96189856 31382
AEROCUBE 8C             
1 41853U 16067F   17160.89828410  .00000745  00000-0  71511-4 0  9991
2 41853  97.9501 238.6572 0009106 332.6994  27.3747 14.96154731 31408
PROMETHEUS 2-1          
1 41854U 16067G   17160.77870691  .00000373  00000-0  38567-4 0  9998
2 41854  97.9505 238.5056 0009606 332.9413  27.1306 14.96105945 31382
PROMETHEUS 2-3          
1 41855U 16067H   17160.91380514  .00000268  00000-0  29277-4 0  9996
2 41855  97.9505 238.6423 0009782 332.4516  27.6185 14.96097642 31403
LEMUR-2-XIAOQING        
1 41871U 16062C   17160.89835471  .00003121  00000-0  14829-3 0  9990
2 41871  51.6314 121.5965 0005308 198.9617 192.1600 15.22187351 29835
LEMUR-2-SOKOLSKY        
1 41872U 16062D   17160.76085404  .00000876  00000-0  51825-4 0  9992
2 41872  51.6243 122.1220 0005227 200.2823 228.4084 15.22245152 29804
LEMUR-2-ANUBHAVTHAKUR   
1 41873U 16062E   17160.87328527 -.00000600  00000-0 -11746-4 0  9996
2 41873  51.6367 122.2093 0007157 210.2471 176.4838 15.21505240 29800
LEMUR-2-WINGO           
1 41874U 16062F   17160.90923317  .00002307  00000-0  11383-3 0  9999
2 41874  51.6414 121.6738 0006000 193.9369 199.9144 15.22033287 29822
STARS-C                 
1 41895U 98067KR  17160.78764993  .00017895  00000-0  21259-3 0  9997
2 41895  51.6393  70.9339 0003001 292.8826  67.1850 15.61239049 26834
TANCREDO-1              
1 41931U 98067KT  17160.89484664  .00035361  00000-0  33192-3 0  9991
2 41931  51.6379  67.8813 0004268 227.9338 132.1295 15.66810765 22459
ITF-2                   
1 41932U 98067KU  17160.77239329  .00009514  00000-0  12603-3 0  9990
2 41932  51.6418  72.3449 0004580 234.1803 125.8765 15.59027495 22389
WASEDA-SAT3             
1 41933U 98067KV  17160.81535663  .00010824  00000-0  13978-3 0  9998
2 41933  51.6399  71.8722 0004465 236.0683 123.9885 15.59537535 22399
AOBA-VELOX 3            
1 41935U 98067KX  17160.82826900  .00010626  00000-0  13852-3 0  9999
2 41935  51.6413  71.9653 0003986 237.9409 122.1198 15.59312543 22494
TUPOD                   
1 41936U 98067KY  17160.82470073  .00061354  00000-0  47579-3 0  9993
2 41936  51.6364  66.6573 0003079 210.2111 149.8709 15.71220149 21946
OSNSAT                  
1 41939U 98067KZ  17160.78188751  .00020887  00000-0  22978-3 0  9992
2 41939  51.6394  70.1400 0004994 235.0521 125.0005 15.63108874 21764
FLOCK 3P-8              
1 41951U 17008D   17160.94178313  .00003390  00000-0  14992-3 0  9990
2 41951  97.4960 222.2705 0007738 206.6755 153.4084 15.22361675 17431
FLOCK 3P-51             
1 41952U 17008E   17160.91715301  .00003403  00000-0  14986-3 0  9990
2 41952  97.4965 222.3121 0007118 227.6072 132.4562 15.22504296 17433
FLOCK 3P-37             
1 41953U 17008F   17160.89564827  .00002091  00000-0  92383-4 0  9993
2 41953  97.4963 222.3354 0006419 232.4032 127.6623 15.22842691 17431
INS-1B                  
1 41954U 17008G   17160.90487623  .00001196  00000-0  55951-4 0  9999
2 41954  97.4941 222.1355 0008891 208.4471 151.6280 15.21689012 17366
FLOCK 3P-19             
1 41955U 17008H   17160.88827735  .00002825  00000-0  12586-3 0  9995
2 41955  97.4955 222.1828 0008627 207.8926 152.1849 15.22249949 17349
FLOCK 3P-24             
1 41956U 17008J   17160.88794493  .00003692  00000-0  16335-3 0  9999
2 41956  97.4954 222.1839 0008630 204.7371 155.3452 15.22281049 17426
FLOCK 3P-18             
1 41957U 17008K   17160.88940887  .00003574  00000-0  15838-3 0  9996
2 41957  97.4956 222.1843 0008701 206.1880 153.8917 15.22243747 17268
FLOCK 3P-22             
1 41958U 17008L   17160.88982477  .00003259  00000-0  14494-3 0  9995
2 41958  97.4956 222.1840 0008504 205.9075 154.1737 15.22197385 17259
FLOCK 3P-21             
1 41959U 17008M   17160.94720330  .00003038  00000-0  13509-3 0  9992
2 41959  97.4961 222.2653 0008224 207.9148 152.1648 15.22255485 17278
FLOCK 3P-28             
1 41960U 17008N   17160.94673964  .00003267  00000-0  14470-3 0  9996
2 41960  97.4960 222.2641 0008070 206.2326 153.8503 15.22337704 17357
FLOCK 3P-26             
1 41961U 17008P   17160.88680061  .00003274  00000-0  14548-3 0  9990
2 41961  97.4959 222.1901 0008321 205.7598 154.3225 15.22223096 17263
FLOCK 3P-17             
1 41962U 17008Q   17160.93881830  .00002499  00000-0  11124-3 0  9999
2 41962  97.4960 222.2743 0007981 208.5449 151.5351 15.22396346 17222
FLOCK 3P-27             
1 41963U 17008R   17160.89042477  .00003314  00000-0  14751-3 0  9997
2 41963  97.4959 222.1872 0008449 206.3005 153.7803 15.22148008 17267
FLOCK 3P-25             
1 41964U 17008S   17160.88361594  .00003044  00000-0  13532-3 0  9997
2 41964  97.4958 222.1927 0008058 206.6672 153.4151 15.22261552 17248
FLOCK 3P-4              
1 41965U 17008T   17160.87923270  .00003193  00000-0  14157-3 0  9991
2 41965  97.4961 222.2023 0007926 207.9277 152.1535 15.22317773 17349
FLOCK 3P-2              
1 41966U 17008U   17160.94483087  .00003202  00000-0  14197-3 0  9992
2 41966  97.4962 222.2702 0007873 205.6244 154.4603 15.22318541 17272
FLOCK 3P-1              
1 41967U 17008V   17160.94745477  .00002170  00000-0  97618-4 0  9990
2 41967  97.4963 222.2678 0007934 206.8472 153.2355 15.22181188 17276
FLOCK 3P-3              
1 41968U 17008W   17160.94656947  .00003030  00000-0  13462-3 0  9994
2 41968  97.4960 222.2653 0007970 205.9411 154.1427 15.22289423 17350
FLOCK 3P-6              
1 41969U 17008X   17160.94379641  .00003078  00000-0  13657-3 0  9996
2 41969  97.4962 222.2719 0007746 205.5247 154.5608 15.22322544 17267
